[{"OBJECT_NAME":"STARLINK-32092","OBJECT_ID":"2024-086U","EPOCH":"2026-03-09T01:16:56.822016","MEAN_MOTION":15.27581312,"ECCENTRICITY":0.00016032,"INCLINATION":43.0043,"RA_OF_ASC_NODE":63.5881,"ARG_OF_PERICENTER":271.6873,"MEAN_ANOMALY":88.3795,"EPHEMERIS_TYPE":0,"CLASSIFICATION_TYPE":"U","NORAD_CAT_ID":59700,"ELEMENT_SET_NO":999,"REV_AT_EPOCH":10401,"BSTAR":1.8738806e-5,"MEAN_MOTION_DOT":2.53e-6,"MEAN_MOTION_DDOT":0},{"OBJECT_NAME":"ELECTRON KICK STAGE R\/B","OBJECT_ID":"2025-061J","EPOCH":"2026-03-09T21:50:35.145600","MEAN_MOTION":15.31602074,"ECCENTRICITY":0.00402669,"INCLINATION":97.5479,"RA_OF_ASC_NODE":52.3854,"ARG_OF_PERICENTER":150.2628,"MEAN_ANOMALY":210.0914,"EPHEMERIS_TYPE":0,"CLASSIFICATION_TYPE":"U","NORAD_CAT_ID":63359,"ELEMENT_SET_NO":999,"REV_AT_EPOCH":5306,"BSTAR":0.0006963674,"MEAN_MOTION_DOT":0.00021749,"MEAN_MOTION_DDOT":0}]
